GPS BIIR-2  (PRN 13)    
1 24876C 97035A   23152.69312500 -.00000000  00000-0  00000-0 0  1522
2 24876  55.5716 142.0413 0068166  50.7836 184.6900  2.00563918    12
GPS BIIR-4  (PRN 20)    
1 26360C 00025A   23152.69312500 -.00000000  00000-0  00000-0 0  1525
2 26360  54.3502  64.4858 0041175 198.2065 122.7236  2.00577680    11
GPS BIIR-8  (PRN 16)    
1 27663C 03005A   23152.69312500  .00000000  00000-0  00000-0 0  1522
2 27663  55.2938 259.1789 0131606  44.4754 258.0592  2.00571648    19
GPS BIIR-9  (PRN 21)    
1 27704C 03010A   23152.69312500 -.00000000  00000-0  00000-0 0  1525
2 27704  55.1071   9.1884 0248558 316.4473 203.3235  2.00570655    10
GPS BIIR-11 (PRN 19)    
1 28190C 04009A   23152.69312500  .00000000  00000-0  00000-0 0  1523
2 28190  55.7672 320.2251 0092664 133.4053 325.9443  2.00569780    13
GPS BIIR-13 (PRN 02)    
1 28474C 04045A   23152.69312500 -.00000000  00000-0  00000-0 0  1529
2 28474  55.4328   9.4762 0175261 286.5079 243.0272  1.99885366    17
GPS BIIRM-1 (PRN 17)    
1 28874C 05038A   23152.69312500  .00000000  00000-0  00000-0 0  1525
2 28874  55.8209 317.6737 0136965 279.2505 201.9308  2.00552461    13
GPS BIIRM-2 (PRN 31)    
1 29486C 06042A   23152.69312500 -.00000000  00000-0  00000-0 0  1522
2 29486  54.6865 195.4085 0104497  29.3504 351.5181  2.00499533    15
GPS BIIRM-3 (PRN 12)    
1 29601C 06052A   23152.69312500  .00000000  00000-0  00000-0 0  1521
2 29601  55.3118 258.1332 0085656  78.4418   0.7406  2.00572643    16
GPS BIIRM-4 (PRN 15)    
1 32260C 07047A   23152.69312500 -.00000000  00000-0  00000-0 0  1522
2 32260  53.4315 126.0655 0147251  68.4151 150.7125  2.00556434    17
GPS BIIRM-5 (PRN 29)    
1 32384C 07062A   23152.69312500  .00000000  00000-0  00000-0 0  1525
2 32384  55.9501 318.4812 0024085 141.8087 205.9803  2.00553823    18
GPS BIIRM-6 (PRN 07)    
1 32711C 08012A   23152.69312500 -.00000000  00000-0  00000-0 0  1526
2 32711  54.4528 194.2614 0175273 234.8209  42.4802  2.00554874    10
GPS BIIRM-8 (PRN 05)    
1 35752C 09043A   23152.69312500 -.00000000  00000-0  00000-0 0  1529
2 35752  55.3527  71.5055 0057525  65.1614 229.3988  2.00563524    10
GPS BIIF-1  (PRN 25)    
1 36585C 10022A   23152.69312500  .00000000  00000-0  00000-0 0  1522
2 36585  54.6066 253.4134 0108981  59.6055 351.4677  2.00557294    13
GPS BIIF-2  (PRN 01)    
1 37753C 11036A   23152.69312500 -.00000000  00000-0  00000-0 0  1527
2 37753  56.7235  15.1346 0126855  54.9012  80.1410  2.00567837    16
GPS BIIF-3  (PRN 24)    
1 38833C 12053A   23152.69312500 -.00000000  00000-0  00000-0 0  1527
2 38833  53.5131 189.0608 0137112  50.6224  97.8269  2.00565823    14
GPS BIIF-4  (PRN 27)    
1 39166C 13023A   23152.69312500  .00000000  00000-0  00000-0 0  1524
2 39166  55.4375 313.9077 0114316  41.4211 207.6210  2.00564675    19
GPS BIIF-5  (PRN 30)    
1 39533C 14008A   23152.69312500 -.00000000  00000-0  00000-0 0  1527
2 39533  53.6006 194.6067 0066379 213.8555  35.2969  2.00573129    12
GPS BIIF-6  (PRN 06)    
1 39741C 14026A   23152.69312500 -.00000000  00000-0  00000-0 0  1528
2 39741  56.6781  14.6575 0029159 314.2352  93.1428  2.00564120    11
GPS BIIF-7  (PRN 09)    
1 40105C 14045A   23152.69312500 -.00000000  00000-0  00000-0 0  1525
2 40105  54.7871 132.8547 0021593 113.7934 227.9937  2.00571212    12
GPS BIIF-8  (PRN 03)    
1 40294C 14068A   23152.69312500 -.00000000  00000-0  00000-0 0  1529
2 40294  56.0963  74.1777 0046684  57.5934  14.5165  2.00565459    13
GPS BIIF-9  (PRN 26)    
1 40534C 15013A   23152.69312500  .00000000  00000-0  00000-0 0  1526
2 40534  53.5054 250.2177 0078141  25.0579 311.6691  2.00560677    14
GPS BIIF-10 (PRN 08)    
1 40730C 15033A   23152.69312500  .00000000  00000-0  00000-0 0  1526
2 40730  54.9281 312.5679 0084216  13.9104 206.5045  2.00560332    11
GPS BIIF-11 (PRN 10)    
1 41019C 15062A   23152.69312500 -.00000000  00000-0  00000-0 0  1520
2 41019  56.0811  74.0259 0086675 221.8885 318.2760  2.00562376    10
GPS BIIF-12 (PRN 32)    
1 41328C 16007A   23152.69312500 -.00000000  00000-0  00000-0 0  1523
2 41328  54.9942 133.6101 0071146 234.8807 240.8873  2.00554293    12
GPS BIII-1  (PRN 04)    
1 43873C 18109A   23152.69312500 -.00000000  00000-0  00000-0 0  1525
2 43873  55.1709 136.1049 0024357 194.7442 173.0712  2.00564449    16
GPS BIII-2  (PRN 18)    
1 44506C 19056A   23152.69312500 -.00000000  00000-0  00000-0 0  1521
2 44506  55.8001  15.1870 0032542 182.8408  85.7805  2.00564229    13
GPS BIII-3  (PRN 23)    
1 45854C 20041A   23152.69312500 -.00000000  00000-0  00000-0 0  1524
2 45854  55.8020  72.4661 0032206 186.7661  25.1176  2.00565671    17
GPS BIII-4  (PRN 14)    
1 46826C 20078A   23152.69312500  .00000000  00000-0  00000-0 0  1523
2 46826  54.3575 255.9134 0032296 191.4009 356.0660  2.00563117    14
GPS BIII-5  (PRN 11)    
1 48859C 21054A   23152.69312500 -.00000000  00000-0  00000-0 0  1527
2 48859  55.3149  17.0180 0009356 208.4745 159.7922  2.00554818    12
GPS BIII-6  (PRN 28)    
1 55268C 23009A   23152.69312500 -.00000000  00000-0  00000-0 0  1521
2 55268  55.0918 192.1256 0004573 101.2574 311.4368  2.00561904    15
